start=new Date('2022-08-08T00:00:00.000Z').valueOf();
sats=[{"DECAY_DATE":null,"REV_AT_EPOCH":"3760","ARG_OF_PERICENTER":"53.3791","COUNTRY_CODE":"US","INCLINATION":"53.2169","OBJECT_NAME":"STARLINK-3246","FILE":"3531314","TLE_LINE1":"1 49732U 21115J   22219.55965769 -.00000092  00000-0  12297-4 0  9990","EPOCH":"2022-08-07T13:25:54.424416","ECCENTRICITY":"0.00016710","GP_ID":"209763984","MEAN_ANOMALY":"306.7355","MEAN_ELEMENT_THEORY":"SGP4","PERIAPSIS":"538.582","MEAN_MOTION_DDOT":"0.0000000000000","OBJECT_ID":"2021-115J","CLASSIFICATION_TYPE":"U","RCS_SIZE":"LARGE","MEAN_MOTION_DOT":"-0.00000092","SEMIMAJOR_AXIS":"6917.873","TIME_SYSTEM":"UTC","MEAN_MOTION":"15.08842462","REF_FRAME":"TEME","TLE_LINE2":"2 49732  53.2169 280.5183 0001671  53.3791 306.7355 15.08842462 37608","ELEMENT_SET_NO":"999","EPHEMERIS_TYPE":"0","RA_OF_ASC_NODE":"280.5183","BSTAR":"0.00001229700000","SITE":"AFETR","NORAD_CAT_ID":"49732","APOAPSIS":"540.894","OBJECT_TYPE":"PAYLOAD","LAUNCH_DATE":"2021-12-02","CENTER_NAME":"EARTH","PERIOD":"95.437"},{"TLE_LINE2":"2 49733  53.2169 280.8506 0001268  69.7004 290.4124 15.08871796 38708","REF_FRAME":"TEME","MEAN_MOTION":"15.08871796","TIME_SYSTEM":"UTC","CENTER_NAME":"EARTH","PERIOD":"95.436","LAUNCH_DATE":"2021-12-02","OBJECT_TYPE":"PAYLOAD","NORAD_CAT_ID":"49733","APOAPSIS":"540.525","SITE":"AFETR","BSTAR":"-0.00051176000000","EPHEMERIS_TYPE":"0","RA_OF_ASC_NODE":"280.8506","ELEMENT_SET_NO":"999","TLE_LINE1":"1 49733U 21115K   22219.48605219 -.00008430  00000-0 -51176-3 0  9997","FILE":"3531480","COUNTRY_CODE":"US","OBJECT_NAME":"STARLINK-3252","INCLINATION":"53.2169","ARG_OF_PERICENTER":"69.7004","REV_AT_EPOCH":"3870","DECAY_DATE":null,"SEMIMAJOR_AXIS":"6917.783","MEAN_MOTION_DOT":"-0.00008430","RCS_SIZE":"LARGE","CLASSIFICATION_TYPE":"U","OBJECT_ID":"2021-115K","MEAN_MOTION_DDOT":"0.0000000000000","PERIAPSIS":"538.771","MEAN_ELEMENT_THEORY":"SGP4","GP_ID":"209770148","ECCENTRICITY":"0.00012680","MEAN_ANOMALY":"290.4124","EPOCH":"2022-08-07T11:39:54.909216"},{"APOAPSIS":"540.908","NORAD_CAT_ID":"49734","OBJECT_TYPE":"PAYLOAD","LAUNCH_DATE":"2021-12-02","CENTER_NAME":"EARTH","PERIOD":"95.438","ELEMENT_SET_NO":"999","EPHEMERIS_TYPE":"0","RA_OF_ASC_NODE":"269.2924","BSTAR":"0.00002803500000","SITE":"AFETR","REF_FRAME":"TEME","TLE_LINE2":"2 49734  53.2173 269.2924 0001679  63.3805 296.7359 15.08839535 37796","TIME_SYSTEM":"UTC","MEAN_MOTION":"15.08839535","MEAN_MOTION_DDOT":"0.0000000000000","OBJECT_ID":"2021-115L","CLASSIFICATION_TYPE":"U","RCS_SIZE":"LARGE","MEAN_MOTION_DOT":"0.00000158","SEMIMAJOR_AXIS":"6917.882","EPOCH":"2022-08-07T20:04:40.289088","ECCENTRICITY":"0.00016790","GP_ID":"209795389","MEAN_ANOMALY":"296.7359","MEAN_ELEMENT_THEORY":"SGP4","PERIAPSIS":"538.585","FILE":"3531552","TLE_LINE1":"1 49734U 21115L   22219.83657742  .00000158  00000-0  28035-4 0  9991","DECAY_DATE":null,"REV_AT_EPOCH":"3779","ARG_OF_PERICENTER":"63.3805","OBJECT_NAME":"STARLINK-3238","COUNTRY_CODE":"US","INCLINATION":"53.2173"},{"CENTER_NAME":"EARTH","PERIOD":"95.437","LAUNCH_DATE":"2021-12-02","OBJECT_TYPE":"PAYLOAD","APOAPSIS":"540.759","NORAD_CAT_ID":"49735","SITE":"AFETR","BSTAR":"0.00003950200000","EPHEMERIS_TYPE":"0","RA_OF_ASC_NODE":"280.5347","ELEMENT_SET_NO":"999","TLE_LINE2":"2 49735  53.2167 280.5347 0001492  56.5752 303.5383 15.08846034 37609","REF_FRAME":"TEME","TIME_SYSTEM":"UTC","MEAN_MOTION":"15.08846034","MEAN_MOTION_DOT":"0.00000341","SEMIMAJOR_AXIS":"6917.862","RCS_SIZE":"LARGE","CLASSIFICATION_TYPE":"U","MEAN_MOTION_DDOT":"0.0000000000000","OBJECT_ID":"2021-115M","MEAN_ELEMENT_THEORY":"SGP4","PERIAPSIS":"538.695","GP_ID":"209765228","MEAN_ANOMALY":"303.5383","ECCENTRICITY":"0.00014920","EPOCH":"2022-08-07T13:20:36.265920","FILE":"3531314","TLE_LINE1":"1 49735U 21115M   22219.55597530  .00000341  00000-0  39502-4 0  9994","ARG_OF_PERICENTER":"56.5752","COUNTRY_CODE":"US","OBJECT_NAME":"STARLINK-3113","INCLINATION":"53.2167","DECAY_DATE":null,"REV_AT_EPOCH":"3760"},{"MEAN_MOTION":"15.08843247","TIME_SYSTEM":"UTC","REF_FRAME":"TEME","TLE_LINE2":"2 49736  53.2180 269.2560 0001578  55.7249 304.3893 15.08843247 37791","ELEMENT_SET_NO":"999","EPHEMERIS_TYPE":"0","RA_OF_ASC_NODE":"269.2560","BSTAR":"0.00014406000000","SITE":"AFETR","APOAPSIS":"540.827","NORAD_CAT_ID":"49736","OBJECT_TYPE":"PAYLOAD","LAUNCH_DATE":"2021-12-02","PERIOD":"95.437","CENTER_NAME":"EARTH","REV_AT_EPOCH":"3779","DECAY_DATE":null,"INCLINATION":"53.2180","COUNTRY_CODE":"US","OBJECT_NAME":"STARLINK-3148","ARG_OF_PERICENTER":"55.7249","TLE_LINE1":"1 49736U 21115N   22219.84393264  .00002006  00000-0  14406-3 0  9990","FILE":"3531552","EPOCH":"2022-08-07T20:15:15.780096","ECCENTRICITY":"0.00015780","GP_ID":"209794903","MEAN_ANOMALY":"304.3893","PERIAPSIS":"538.644","MEAN_ELEMENT_THEORY":"SGP4","OBJECT_ID":"2021-115N","MEAN_MOTION_DDOT":"0.0000000000000","CLASSIFICATION_TYPE":"U","RCS_SIZE":"LARGE","SEMIMAJOR_AXIS":"6917.870","MEAN_MOTION_DOT":"0.00002006"},{"RA_OF_ASC_NODE":"269.2744","EPHEMERIS_TYPE":"0","BSTAR":"0.00004193200000","SITE":"AFETR","ELEMENT_SET_NO":"999","LAUNCH_DATE":"2021-12-02","PERIOD":"95.437","CENTER_NAME":"EARTH","APOAPSIS":"540.812","NORAD_CAT_ID":"49737","OBJECT_TYPE":"PAYLOAD","TIME_SYSTEM":"UTC","MEAN_MOTION":"15.08842342","REF_FRAME":"TEME","TLE_LINE2":"2 49737  53.2158 269.2744 0001552  54.5447 305.5690 15.08842342 37793","MEAN_ELEMENT_THEORY":"SGP4","PERIAPSIS":"538.665","EPOCH":"2022-08-07T20:09:58.369824","ECCENTRICITY":"0.00015520","GP_ID":"209795650","MEAN_ANOMALY":"305.5690","RCS_SIZE":"LARGE","SEMIMAJOR_AXIS":"6917.873","MEAN_MOTION_DOT":"0.00000379","MEAN_MOTION_DDOT":"0.0000000000000","OBJECT_ID":"2021-115P","CLASSIFICATION_TYPE":"U","ARG_OF_PERICENTER":"54.5447","OBJECT_NAME":"STARLINK-3225","COUNTRY_CODE":"US","INCLINATION":"53.2158","DECAY_DATE":null,"REV_AT_EPOCH":"3779","FILE":"3531552","TLE_LINE1":"1 49737U 21115P   22219.84025891  .00000379  00000-0  41932-4 0  9995"},{"REV_AT_EPOCH":"3779","DECAY_DATE":null,"COUNTRY_CODE":"US","INCLINATION":"53.2152","OBJECT_NAME":"STARLINK-3143","ARG_OF_PERICENTER":"62.3848","TLE_LINE1":"1 49738U 21115Q   22219.84762800  .00002405  00000-0  16917-3 0  9990","FILE":"3531552","EPOCH":"2022-08-07T20:20:35.059200","GP_ID":"209795890","MEAN_ANOMALY":"297.7303","ECCENTRICITY":"0.00015690","PERIAPSIS":"538.671","MEAN_ELEMENT_THEORY":"SGP4","OBJECT_ID":"2021-115Q","MEAN_MOTION_DDOT":"0.0000000000000","CLASSIFICATION_TYPE":"U","RCS_SIZE":"LARGE","SEMIMAJOR_AXIS":"6917.891","MEAN_MOTION_DOT":"0.00002405","MEAN_MOTION":"15.08836368","TIME_SYSTEM":"UTC","REF_FRAME":"TEME","TLE_LINE2":"2 49738  53.2152 269.2445 0001569  62.3848 297.7303 15.08836368 37790","ELEMENT_SET_NO":"999","EPHEMERIS_TYPE":"0","RA_OF_ASC_NODE":"269.2445","SITE":"AFETR","BSTAR":"0.00016917000000","NORAD_CAT_ID":"49738","APOAPSIS":"540.842","OBJECT_TYPE":"PAYLOAD","LAUNCH_DATE":"2021-12-02","CENTER_NAME":"EARTH","PERIOD":"95.438"},{"MEAN_MOTION":"15.08845647","TIME_SYSTEM":"UTC","TLE_LINE2":"2 49739  53.2163 280.4986 0001391  68.5033 291.6107 15.08845647 37600","REF_FRAME":"TEME","BSTAR":"0.00009733900000","SITE":"AFETR","RA_OF_ASC_NODE":"280.4986","EPHEMERIS_TYPE":"0","ELEMENT_SET_NO":"999","PERIOD":"95.437","CENTER_NAME":"EARTH","LAUNCH_DATE":"2021-12-02","OBJECT_TYPE":"PAYLOAD","APOAPSIS":"540.690","NORAD_CAT_ID":"49739","COUNTRY_CODE":"US","OBJECT_NAME":"STARLINK-3155","INCLINATION":"53.2163","ARG_OF_PERICENTER":"68.5033","REV_AT_EPOCH":"3760","DECAY_DATE":null,"TLE_LINE1":"1 49739U 21115R   22219.56333667  .00001262  00000-0  97339-4 0  9993","FILE":"3531552","PERIAPSIS":"538.766","MEAN_ELEMENT_THEORY":"SGP4","MEAN_ANOMALY":"291.6107","GP_ID":"209794653","ECCENTRICITY":"0.00013910","EPOCH":"2022-08-07T13:31:12.288288","MEAN_MOTION_DOT":"0.00001262","SEMIMAJOR_AXIS":"6917.863","RCS_SIZE":"LARGE","CLASSIFICATION_TYPE":"U","OBJECT_ID":"2021-115R","MEAN_MOTION_DDOT":"0.0000000000000"},{"TLE_LINE1":"1 49740U 21115S   22219.85865018  .00001686  00000-0  12396-3 0  9996","FILE":"3531552","REV_AT_EPOCH":"3779","DECAY_DATE":null,"OBJECT_NAME":"STARLINK-3226","COUNTRY_CODE":"US","INCLINATION":"53.2157","ARG_OF_PERICENTER":"59.5200","OBJECT_ID":"2021-115S","MEAN_MOTION_DDOT":"0.0000000000000","CLASSIFICATION_TYPE":"U","RCS_SIZE":"LARGE","MEAN_MOTION_DOT":"0.00001686","SEMIMAJOR_AXIS":"6917.863","EPOCH":"2022-08-07T20:36:27.375552","ECCENTRICITY":"0.00014270","GP_ID":"209794403","MEAN_ANOMALY":"300.5933","PERIAPSIS":"538.741","MEAN_ELEMENT_THEORY":"SGP4","REF_FRAME":"TEME","TLE_LINE2":"2 49740  53.2157 269.1849 0001427  59.5200 300.5933 15.08845698 37796","MEAN_MOTION":"15.08845698","TIME_SYSTEM":"UTC","APOAPSIS":"540.715","NORAD_CAT_ID":"49740","OBJECT_TYPE":"PAYLOAD","LAUNCH_DATE":"2021-12-02","CENTER_NAME":"EARTH","PERIOD":"95.437","ELEMENT_SET_NO":"999","EPHEMERIS_TYPE":"0","RA_OF_ASC_NODE":"269.1849","SITE":"AFETR","BSTAR":"0.00012396000000"},{"TLE_LINE2":"2 49741  53.2149 269.2148 0001750  56.7035 303.4125 15.08858861 37796","REF_FRAME":"TEME","TIME_SYSTEM":"UTC","MEAN_MOTION":"15.08858861","OBJECT_TYPE":"PAYLOAD","APOAPSIS":"540.898","NORAD_CAT_ID":"49741","PERIOD":"95.436","CENTER_NAME":"EARTH","LAUNCH_DATE":"2021-12-02","ELEMENT_SET_NO":"999","BSTAR":"0.00027372000000","SITE":"AFETR","EPHEMERIS_TYPE":"0","RA_OF_ASC_NODE":"269.2148","FILE":"3531552","TLE_LINE1":"1 49741U 21115T   22219.85130087  .00004073  00000-0  27372-3 0  9991","DECAY_DATE":null,"REV_AT_EPOCH":"3779","ARG_OF_PERICENTER":"56.7035","OBJECT_NAME":"STARLINK-3244","COUNTRY_CODE":"US","INCLINATION":"53.2149","CLASSIFICATION_TYPE":"U","MEAN_MOTION_DDOT":"0.0000000000000","OBJECT_ID":"2021-115T","MEAN_MOTION_DOT":"0.00004073","SEMIMAJOR_AXIS":"6917.823","RCS_SIZE":"LARGE","MEAN_ANOMALY":"303.4125","GP_ID":"209795150","ECCENTRICITY":"0.00017500","EPOCH":"2022-08-07T20:25:52.395168","MEAN_ELEMENT_THEORY":"SGP4","PERIAPSIS":"538.477"}];
